[{"OBJECT_NAME":"CONNECTA IOT-11","OBJECT_ID":"2025-135AF","EPOCH":"2026-03-09T19:22:47.918784","MEAN_MOTION":15.20956963,"ECCENTRICITY":0.0001643,"INCLINATION":97.4588,"RA_OF_ASC_NODE":185.0556,"ARG_OF_PERICENTER":46.4014,"MEAN_ANOMALY":313.7358,"EPHEMERIS_TYPE":0,"CLASSIFICATION_TYPE":"U","NORAD_CAT_ID":64557,"ELEMENT_SET_NO":999,"REV_AT_EPOCH":3976,"BSTAR":0.00025659411,"MEAN_MOTION_DOT":5.614e-5,"MEAN_MOTION_DDOT":0},{"OBJECT_NAME":"OBJECT AG","OBJECT_ID":"2025-313AG","EPOCH":"2026-03-09T22:37:52.608000","MEAN_MOTION":15.21637912,"ECCENTRICITY":0.00154165,"INCLINATION":97.3989,"RA_OF_ASC_NODE":145.1743,"ARG_OF_PERICENTER":5.2806,"MEAN_ANOMALY":354.859,"EPHEMERIS_TYPE":0,"CLASSIFICATION_TYPE":"U","NORAD_CAT_ID":67278,"ELEMENT_SET_NO":999,"REV_AT_EPOCH":1086,"BSTAR":0.000405111,"MEAN_MOTION_DOT":9.115e-5,"MEAN_MOTION_DDOT":0}]
